COMMENT,ORIGINATOR,NORAD_CAT_ID,OBJECT_NAME,OBJECT_TYPE,CLASSIFICATION_TYPE,INTLDES,EPOCH,EPOCH_MICROSECONDS,MEAN_MOTION,ECCENTRICITY,INCLINATION,RA_OF_ASC_NODE,ARG_OF_PERICENTER,MEAN_ANOMALY,EPHEMERIS_TYPE,ELEMENT_SET_NO,REV_AT_EPOCH,BSTAR,MEAN_MOTION_DOT,MEAN_MOTION_DDOT,FILE,TLE_LINE0,TLE_LINE1,TLE_LINE2,OBJECT_ID,OBJECT_NUMBER,SEMIMAJOR_AXIS,PERIOD,APOGEE,PERIGEE,DECAYED
"GENERATED VIA SPACETRACK.ORG API","18 SPCS","55089","SPACEBEE-163","PAYLOAD","U","23001CJ","2024-03-15 15:35:24","118080","15.38527704","0.0010332","97.4285","140.6791","125.5223","234.6987","0","999","6669","0.0013177","0.00050376","0","4227250","0 SPACEBEE-163","1 55089U 23001CJ  24075.64958470  .00050376  00000-0  13177-2 0  9996","2 55089  97.4285 140.6791 0010332 125.5223 234.6987 15.38527704 66699","2023-001CJ","55089","6828.599","93.596","457.520","443.409","0"
"GENERATED VIA SPACETRACK.ORG API","18 SPCS","55089","SPACEBEE-163","PAYLOAD","U","23001CJ","2024-03-16 04:04:38","488224","15.38582111","0.0010366","97.4287","141.2059","124.3163","235.9064","0","999","6677","0.0010238","0.00039134","0","4228482","0 SPACEBEE-163","1 55089U 23001CJ  24076.16988991  .00039134  00000-0  10238-2 0  9999","2 55089  97.4287 141.2059 0010366 124.3163 235.9064 15.38582111 66774","2023-001CJ","55089","6828.438","93.593","457.382","443.225","0"
"GENERATED VIA SPACETRACK.ORG API","18 SPCS","55089","SPACEBEE-163","PAYLOAD","U","23001CJ","2024-03-16 16:33:51","472512","15.38628061","0.0010325","97.4284","141.7334","122.5537","237.6707","0","999","6685","0.0011142","0.0004268","0","4228996","0 SPACEBEE-163","1 55089U 23001CJ  24076.69017908  .00042680  00000-0  11142-2 0  9993","2 55089  97.4284 141.7334 0010325 122.5537 237.6707 15.38628061 66859","2023-001CJ","55089","6828.302","93.590","457.218","443.117","0"
"GENERATED VIA SPACETRACK.ORG API","18 SPCS","55089","SPACEBEE-163","PAYLOAD","U","23001CJ","2024-03-16 16:33:51","472512","15.38628061","0.0010325","97.4284","141.7334","122.5537","237.6707","0","999","6685","0.0011142","0.0004268","0","4229019","0 SPACEBEE-163","1 55089U 23001CJ  24076.69017908  .00042680  00000-0  11142-2 0  9993","2 55089  97.4284 141.7334 0010325 122.5537 237.6707 15.38628061 66859","2023-001CJ","55089","6828.302","93.590","457.218","443.117","0"
"GENERATED VIA SPACETRACK.ORG API","18 SPCS","55089","SPACEBEE-163","PAYLOAD","U","23001CJ","2024-03-17 03:29:24","173088","15.38670913","0.0010292","97.4285","142.1944","121.2066","239.0189","0","999","6692","0.0011708","0.00044927","0","4230125","0 SPACEBEE-163","1 55089U 23001CJ  24077.14541867  .00044927  00000-0  11708-2 0  9994","2 55089  97.4285 142.1944 0010292 121.2066 239.0189 15.38670913 66929","2023-001CJ","55089","6828.176","93.587","457.068","443.013","0"
"GENERATED VIA SPACETRACK.ORG API","18 SPCS","55089","SPACEBEE-163","PAYLOAD","U","23001CJ","2024-03-17 17:32:13","197120","15.38726587","0.0010281","97.4281","142.7872","119.1565","241.0711","0","999","6701","0.0011779","0.00045284","0","4230661","0 SPACEBEE-163","1 55089U 23001CJ  24077.73070830  .00045284  00000-0  11779-2 0  9991","2 55089  97.4281 142.7872 0010281 119.1565 241.0711 15.38726587 67013","2023-001CJ","55089","6828.011","93.584","456.896","442.856","0"
"GENERATED VIA SPACETRACK.ORG API","18 SPCS","55089","SPACEBEE-163","PAYLOAD","U","23001CJ","2024-03-17 17:32:13","197120","15.38726587","0.0010281","97.4281","142.7872","119.1565","241.0711","0","999","6701","0.0011779","0.00045284","0","4230670","0 SPACEBEE-163","1 55089U 23001CJ  24077.73070830  .00045284  00000-0  11779-2 0  9991","2 55089  97.4281 142.7872 0010281 119.1565 241.0711 15.38726587 67013","2023-001CJ","55089","6828.011","93.584","456.896","442.856","0"
"GENERATED VIA SPACETRACK.ORG API","18 SPCS","55089","SPACEBEE-163","PAYLOAD","U","23001CJ","2024-03-18 02:54:04","827744","15.38765131","0.00103","97.4279","143.1822","117.9611","242.2678","0","999","6707","0.0012069","0.00046467","0","4231680","0 SPACEBEE-163","1 55089U 23001CJ  24078.12088921  .00046467  00000-0  12069-2 0  9992","2 55089  97.4279 143.1822 0010300 117.9611 242.2678 15.38765131 67079","2023-001CJ","55089","6827.897","93.582","456.795","442.729","0"
"GENERATED VIA SPACETRACK.ORG API","18 SPCS","55089","SPACEBEE-163","PAYLOAD","U","23001CJ","2024-03-18 15:23:12","351552","15.388177","0.001032","97.428","143.7094","116.4275","243.8031","0","999","6715","0.0012352","0.00047648","0","4232179","0 SPACEBEE-163","1 55089U 23001CJ  24078.64111518  .00047648  00000-0  12352-2 0  9995","2 55089  97.4280 143.7094 0010320 116.4275 243.8031 15.38817700 67159","2023-001CJ","55089","6827.741","93.578","456.653","442.560","0"
"GENERATED VIA SPACETRACK.ORG API","18 SPCS","55089","SPACEBEE-163","PAYLOAD","U","23001CJ","2024-03-19 02:18:40","141152","15.38868078","0.0010274","97.4279","144.1707","114.7287","245.5029","0","999","6722","0.0013924","0.00053853","0","4232807","0 SPACEBEE-163","1 55089U 23001CJ  24079.09629793  .00053853  00000-0  13924-2 0  9995","2 55089  97.4279 144.1707 0010274 114.7287 245.5029 15.38868078 67223","2023-001CJ","55089","6827.592","93.575","456.472","442.443","0"
"GENERATED VIA SPACETRACK.ORG API","18 SPCS","55089","SPACEBEE-163","PAYLOAD","U","23001CJ","2024-03-19 03:52:18","235488","15.38885357","0.0010301","97.4278","144.2365","114.5129","245.7192","0","999","6723","0.0016816","0.00065187","0","4233772","0 SPACEBEE-163","1 55089U 23001CJ  24079.16132217  .00065187  00000-0  16816-2 0  9999","2 55089  97.4278 144.2365 0010301 114.5129 245.7192 15.38885357 67230","2023-001CJ","55089","6827.541","93.574","456.439","442.373","0"
"GENERATED VIA SPACETRACK.ORG API","18 SPCS","55089","SPACEBEE-163","PAYLOAD","U","23001CJ","2024-03-19 17:54:59","792832","15.38966286","0.001024","97.428","144.8296","112.8661","247.3666","0","999","6732","0.0017379","0.0006757","0","4233762","0 SPACEBEE-163","1 55089U 23001CJ  24079.74652538  .00067570  00000-0  17379-2 0  9999","2 55089  97.4280 144.8296 0010240 112.8661 247.3666 15.38966286 67321","2023-001CJ","55089","6827.302","93.569","456.158","442.176","0"
"GENERATED VIA SPACETRACK.ORG API","18 SPCS","55089","SPACEBEE-163","PAYLOAD","U","23001CJ","2024-03-20 03:16:46","27776","15.39021249","0.0010166","97.4281","145.2248","111.8892","248.3435","0","999","6738","0.0016589","0.00064584","0","4234892","0 SPACEBEE-163","1 55089U 23001CJ  24080.13664384  .00064584  00000-0  16589-2 0  9990","2 55089  97.4281 145.2248 0010166 111.8892 248.3435 15.39021249 67389","2023-001CJ","55089","6827.139","93.566","455.945","442.064","0"
"GENERATED VIA SPACETRACK.ORG API","18 SPCS","55089","SPACEBEE-163","PAYLOAD","U","23001CJ","2024-03-20 22:00:15","85728","15.39124953","0.0010072","97.4285","146.0164","108.8668","251.367","0","999","6750","0.0017794","0.00069558","0","4235427","0 SPACEBEE-163","1 55089U 23001CJ  24080.91684127  .00069558  00000-0  17794-2 0  9998","2 55089  97.4285 146.0164 0010072 108.8668 251.3670 15.39124953 67507","2023-001CJ","55089","6826.833","93.560","455.574","441.822","0"
"GENERATED VIA SPACETRACK.ORG API","18 SPCS","55089","SPACEBEE-163","PAYLOAD","U","23001CJ","2024-03-21 04:14:43","682208","15.39166932","0.0010075","97.4285","146.2801","108.0901","252.1443","0","999","6754","0.0018136","0.00071007","0","4236018","0 SPACEBEE-163","1 55089U 23001CJ  24081.17689447  .00071007  00000-0  18136-2 0  9990","2 55089  97.4285 146.2801 0010075 108.0901 252.1443 15.39166932 67546","2023-001CJ","55089","6826.708","93.557","455.451","441.696","0"
"GENERATED VIA SPACETRACK.ORG API","18 SPCS","55089","SPACEBEE-163","PAYLOAD","U","23001CJ","2024-03-21 04:14:43","682208","15.39166932","0.0010075","97.4285","146.2801","108.0901","252.1443","0","999","6754","0.0018136","0.00071007","0","4236727","0 SPACEBEE-163","1 55089U 23001CJ  24081.17689447  .00071007  00000-0  18136-2 0  9990","2 55089  97.4285 146.2801 0010075 108.0901 252.1443 15.39166932 67546","2023-001CJ","55089","6826.708","93.557","455.451","441.696","0"
"GENERATED VIA SPACETRACK.ORG API","18 SPCS","55089","SPACEBEE-163","PAYLOAD","U","23001CJ","2024-03-21 16:43:39","316512","15.39239798","0.0009996","97.4282","146.8079","106.1036","254.1311","0","999","6762","0.002033","0.00079886","0","4237326","0 SPACEBEE-163","1 55089U 23001CJ  24081.69698283  .00079886  00000-0  20330-2 0  9997","2 55089  97.4282 146.8079 0009996 106.1036 254.1311 15.39239798 67620","2023-001CJ","55089","6826.493","93.553","455.182","441.534","0"
"GENERATED VIA SPACETRACK.ORG API","18 SPCS","55089","SPACEBEE-163","PAYLOAD","U","23001CJ","2024-03-22 03:38:55","767840","15.3932562","0.0009968","97.428","147.2689","105.0011","255.2338","0","999","6769","0.0019457","0.00076634","0","4237926","0 SPACEBEE-163","1 55089U 23001CJ  24082.15203435  .00076634  00000-0  19457-2 0  9996","2 55089  97.4280 147.2689 0009968 105.0011 255.2338 15.39325620 67698","2023-001CJ","55089","6826.239","93.547","454.909","441.300","0"
"GENERATED VIA SPACETRACK.ORG API","18 SPCS","55089","SPACEBEE-163","PAYLOAD","U","23001CJ","2024-03-22 03:38:55","767840","15.3932562","0.0009968","97.428","147.2689","105.0011","255.2338","0","999","6769","0.0019457","0.00076634","0","4238588","0 SPACEBEE-163","1 55089U 23001CJ  24082.15203435  .00076634  00000-0  19457-2 0  9996","2 55089  97.4280 147.2689 0009968 105.0011 255.2338 15.39325620 67698","2023-001CJ","55089","6826.239","93.547","454.909","441.300","0"
"GENERATED VIA SPACETRACK.ORG API","18 SPCS","55089","SPACEBEE-163","PAYLOAD","U","23001CJ","2024-03-22 16:07:46","301952","15.39413146","0.0009893","97.4277","147.7967","102.9545","257.2806","0","999","6777","0.0016416","0.00064728","0","4239209","0 SPACEBEE-163","1 55089U 23001CJ  24082.67206368  .00064728  00000-0  16416-2 0  9994","2 55089  97.4277 147.7967 0009893 102.9545 257.2806 15.39413146 67775","2023-001CJ","55089","6825.981","93.542","454.599","441.093","0"
